EARTHCARE               
1 59908U 24101A   24226.36645120  .00029850  00000+0  42600-3 0  9990
2 59908  96.9852 352.7831 0002713 237.7148 122.3845 15.56230324 11879
